{"type": "FeatureCollection", "features": [ {"type": "Feature", "properties": {"norad_id": 34014, "name": "COSMOS 2251 DEB", "group": "cosmos-2251-debris", "lat": -58.78041274291863, "lon": -89.78395678993571, "alt_km": 679.1666562716446, "timestamp": "2025-12-03T15:48:03.459839+00:00", "meta": {"OBJECT_NAME": "COSMOS 2251 DEB", "OBJECT_ID": "1993-036GZ", "EPOCH": "2025-12-03T08:37:21.436032", "MEAN_MOTION": 14.72934098, "ECCENTRICITY": 0.00367469, "INCLINATION": 74.017, "RA_OF_ASC_NODE": 299.0214, "ARG_OF_PERICENTER": 81.2624, "MEAN_ANOMALY": 70.8948, "EPHEMERIS_TYPE": 0, "CLASSIFICATION_TYPE": "U", "NORAD_CAT_ID": 34014, "ELEMENT_SET_NO": 999, "REV_AT_EPOCH": 89165, "BSTAR": 0.0014226729, "MEAN_MOTION_DOT": 9.202e-05, "MEAN_MOTION_DDOT": 0}, "tle": {"line1": "1 34014U 93036GZ  25337.35927588  .00009202  00000+0  14227-2 0  9990", "line2": "2 34014  74.0170 299.0214 0036746  81.2624  70.8948 14.72934098891651"}}, "geometry": {"type": "Point", "coordinates": [-89.78395678993571, -58.78041274291863]}}, {"type": "Feature", "properties": {"norad_id": 34015, "name": "COSMOS 2251 DEB", "group": "cosmos-2251-debris", "lat": 60.88130493472952, "lon": -34.18212459009043, "alt_km": 700.7637823835339, "timestamp": "2025-12-03T15:48:03.459848+00:00", "meta": {"OBJECT_NAME": "COSMOS 2251 DEB", "OBJECT_ID": "1993-036HA", "EPOCH": "2025-12-03T01:02:17.494656", "MEAN_MOTION": 14.60051872, "ECCENTRICITY": 0.00212343, "INCLINATION": 74.0236, "RA_OF_ASC_NODE": 177.9444, "ARG_OF_PERICENTER": 275.3525, "MEAN_ANOMALY": 207.5128, "EPHEMERIS_TYPE": 0, "CLASSIFICATION_TYPE": "U", "NORAD_CAT_ID": 34015, "ELEMENT_SET_NO": 999, "REV_AT_EPOCH": 88389, "BSTAR": 0.0013854968, "MEAN_MOTION_DOT": 6.654e-05, "MEAN_MOTION_DDOT": 0}, "tle": {"line1": "1 34015U 93036HA  25337.04325804  .00006654  00000+0  13855-2 0  9994", "line2": "2 34015  74.0236 177.9444 0021234 275.3525 207.5128 14.60051872883899"}}, "geometry": {"type": "Point", "coordinates": [-34.18212459009043, 60.88130493472952]}}, {"type": "Feature", "properties": {"norad_id": 34018, "name": "COSMOS 2251 DEB", "group": "cosmos-2251-debris", "lat": -37.67246357379043, "lon": 94.57972871746136, "alt_km": 1159.5441488386805, "timestamp": "2025-12-03T15:48:03.459857+00:00", "meta": {"OBJECT_NAME": "COSMOS 2251 DEB", "OBJECT_ID": "1993-036HD", "EPOCH": "2025-12-02T19:42:41.135616", "MEAN_MOTION": 13.81046368, "ECCENTRICITY": 0.02643414, "INCLINATION": 73.8767, "RA_OF_ASC_NODE": 108.903, "ARG_OF_PERICENTER": 146.6532, "MEAN_ANOMALY": 333.569, "EPHEMERIS_TYPE": 0, "CLASSIFICATION_TYPE": "U", "NORAD_CAT_ID": 34018, "ELEMENT_SET_NO": 999, "REV_AT_EPOCH": 84520, "BSTAR": 0.00079436661, "MEAN_MOTION_DOT": 1.072e-05, "MEAN_MOTION_DDOT": 0}, "tle": {"line1": "1 34018U 93036HD  25336.82130944  .00001072  00000+0  79437-3 0  9999", "line2": "2 34018  73.8767 108.9030 0264341 146.6532 333.5690 13.81046368845202"}}, "geometry": {"type": "Point", "coordinates": [94.57972871746136, -37.67246357379043]}}, {"type": "Feature", "properties": {"norad_id": 34019, "name": "COSMOS 2251 DEB", "group": "cosmos-2251-debris", "lat": 20.1562401574686, "lon": -118.6232086878665, "alt_km": 779.0127399617277, "timestamp": "2025-12-03T15:48:03.459866+00:00", "meta": {"OBJECT_NAME": "COSMOS 2251 DEB", "OBJECT_ID": "1993-036HE", "EPOCH": "2025-12-02T14:13:38.254368", "MEAN_MOTION": 14.33850704, "ECCENTRICITY": 0.00626988, "INCLINATION": 73.9548, "RA_OF_ASC_NODE": 69.3989, "ARG_OF_PERICENTER": 252.0612, "MEAN_ANOMALY": 169.3971, "EPHEMERIS_TYPE": 0, "CLASSIFICATION_TYPE": "U", "NORAD_CAT_ID": 34019, "ELEMENT_SET_NO": 999, "REV_AT_EPOCH": 87375, "BSTAR": 0.0013227812, "MEAN_MOTION_DOT": 3.739e-05, "MEAN_MOTION_DDOT": 0}, "tle": {"line1": "1 34019U 93036HE  25336.59280387  .00003739  00000+0  13228-2 0  9998", "line2": "2 34019  73.9548  69.3989 0062698 252.0612 169.3971 14.33850704873759"}}, "geometry": {"type": "Point", "coordinates": [-118.6232086878665, 20.1562401574686]}}, {"type": "Feature", "properties": {"norad_id": 34021, "name": "COSMOS 2251 DEB", "group": "cosmos-2251-debris", "lat": 73.04462324512333, "lon": -103.00580400864877, "alt_km": 732.7719146331301, "timestamp": "2025-12-03T15:48:03.459875+00:00", "meta": {"OBJECT_NAME": "COSMOS 2251 DEB", "OBJECT_ID": "1993-036HG", "EPOCH": "2025-12-02T13:07:28.217568", "MEAN_MOTION": 14.49886579, "ECCENTRICITY": 0.00206755, "INCLINATION": 74.0344, "RA_OF_ASC_NODE": 148.9655, "ARG_OF_PERICENTER": 293.9688, "MEAN_ANOMALY": 122.3899, "EPHEMERIS_TYPE": 0, "CLASSIFICATION_TYPE": "U", "NORAD_CAT_ID": 34021, "ELEMENT_SET_NO": 999, "REV_AT_EPOCH": 88482, "BSTAR": 0.00055889678, "MEAN_MOTION_DOT": 2.138e-05, "MEAN_MOTION_DDOT": 0}, "tle": {"line1": "1 34021U 93036HG  25336.54685437  .00002138  00000+0  55890-3 0  9995", "line2": "2 34021  74.0344 148.9655 0020675 293.9688 122.3899 14.49886579884822"}}, "geometry": {"type": "Point", "coordinates": [-103.00580400864877, 73.04462324512333]}}, {"type": "Feature", "properties": {"norad_id": 34022, "name": "COSMOS 2251 DEB", "group": "cosmos-2251-debris", "lat": -74.04397492304089, "lon": -162.54410898716927, "alt_km": 767.3210167999105, "timestamp": "2025-12-03T15:48:03.459885+00:00", "meta": {"OBJECT_NAME": "COSMOS 2251 DEB", "OBJECT_ID": "1993-036HH", "EPOCH": "2025-12-02T22:07:25.071744", "MEAN_MOTION": 14.38936714, "ECCENTRICITY": 0.00223423, "INCLINATION": 74.0538, "RA_OF_ASC_NODE": 288.8851, "ARG_OF_PERICENTER": 355.7024, "MEAN_ANOMALY": 60.5869, "EPHEMERIS_TYPE": 0, "CLASSIFICATION_TYPE": "U", "NORAD_CAT_ID": 34022, "ELEMENT_SET_NO": 999, "REV_AT_EPOCH": 88054, "BSTAR": 0.00034551866, "MEAN_MOTION_DOT": 1.042e-05, "MEAN_MOTION_DDOT": 0}, "tle": {"line1": "1 34022U 93036HH  25336.92181796  .00001042  00000+0  34552-3 0  9992", "line2": "2 34022  74.0538 288.8851 0022342 355.7024  60.5869 14.38936714880544"}}, "geometry": {"type": "Point", "coordinates": [-162.54410898716927, -74.04397492304089]}}, {"type": "Feature", "properties": {"norad_id": 34023, "name": "COSMOS 2251 DEB", "group": "cosmos-2251-debris", "lat": 40.2191477926618, "lon": 74.52981192031626, "alt_km": 761.8655106145698, "timestamp": "2025-12-03T15:48:03.459894+00:00", "meta": {"OBJECT_NAME": "COSMOS 2251 DEB", "OBJECT_ID": "1993-036HJ", "EPOCH": "2025-12-03T05:51:38.172384", "MEAN_MOTION": 14.40524866, "ECCENTRICITY": 0.00180493, "INCLINATION": 74.0248, "RA_OF_ASC_NODE": 269.315, "ARG_OF_PERICENTER": 6.5951, "MEAN_ANOMALY": 143.9398, "EPHEMERIS_TYPE": 0, "CLASSIFICATION_TYPE": "U", "NORAD_CAT_ID": 34023, "ELEMENT_SET_NO": 999, "REV_AT_EPOCH": 88077, "BSTAR": 0.00054994731, "MEAN_MOTION_DOT": 1.728e-05, "MEAN_MOTION_DDOT": 0}, "tle": {"line1": "1 34023U 93036HJ  25337.24419181  .00001728  00000+0  54995-3 0  9995", "line2": "2 34023  74.0248 269.3150 0018049   6.5951 143.9398 14.40524866880770"}}, "geometry": {"type": "Point", "coordinates": [74.52981192031626, 40.2191477926618]}}, {"type": "Feature", "properties": {"norad_id": 34024, "name": "COSMOS 2251 DEB", "group": "cosmos-2251-debris", "lat": -42.64067060735976, "lon": -42.63364676749406, "alt_km": 775.1302993240615, "timestamp": "2025-12-03T15:48:03.459903+00:00", "meta": {"OBJECT_NAME": "COSMOS 2251 DEB", "OBJECT_ID": "1993-036HK", "EPOCH": "2025-12-03T08:12:08.521920", "MEAN_MOTION": 14.35378725, "ECCENTRICITY": 0.0020601, "INCLINATION": 74.0462, "RA_OF_ASC_NODE": 333.2194, "ARG_OF_PERICENTER": 26.4522, "MEAN_ANOMALY": 93.6918, "EPHEMERIS_TYPE": 0, "CLASSIFICATION_TYPE": "U", "NORAD_CAT_ID": 34024, "ELEMENT_SET_NO": 999, "REV_AT_EPOCH": 87889, "BSTAR": 0.0002911115, "MEAN_MOTION_DOT": 8.11e-06, "MEAN_MOTION_DDOT": 0}, "tle": {"line1": "1 34024U 93036HK  25337.34176530  .00000811  00000+0  29111-3 0  9999", "line2": "2 34024  74.0462 333.2194 0020601  26.4522  93.6918 14.35378725878894"}}, "geometry": {"type": "Point", "coordinates": [-42.63364676749406, -42.64067060735976]}}, {"type": "Feature", "properties": {"norad_id": 34026, "name": "COSMOS 2251 DEB", "group": "cosmos-2251-debris", "lat": -24.09082389625417, "lon": -15.096456576182298, "alt_km": 1107.668273662317, "timestamp": "2025-12-03T15:48:03.459912+00:00", "meta": {"OBJECT_NAME": "COSMOS 2251 DEB", "OBJECT_ID": "1993-036HM", "EPOCH": "2025-12-03T03:58:35.188320", "MEAN_MOTION": 13.65277162, "ECCENTRICITY": 0.03512428, "INCLINATION": 73.7672, "RA_OF_ASC_NODE": 353.207, "ARG_OF_PERICENTER": 224.6097, "MEAN_ANOMALY": 205.8785, "EPHEMERIS_TYPE": 0, "CLASSIFICATION_TYPE": "U", "NORAD_CAT_ID": 34026, "ELEMENT_SET_NO": 999, "REV_AT_EPOCH": 83401, "BSTAR": 0.0012180782, "MEAN_MOTION_DOT": 1.484e-05, "MEAN_MOTION_DDOT": 0}, "tle": {"line1": "1 34026U 93036HM  25337.16568505  .00001484  00000+0  12181-2 0  9993", "line2": "2 34026  73.7672 353.2070 0351242 224.6097 205.8785 13.65277162834017"}}, "geometry": {"type": "Point", "coordinates": [-15.096456576182298, -24.09082389625417]}}, {"type": "Feature", "properties": {"norad_id": 34028, "name": "COSMOS 2251 DEB", "group": "cosmos-2251-debris", "lat": 2.3321128309110155, "lon": 1.8485155578739616, "alt_km": 1480.0534852125393, "timestamp": "2025-12-03T15:48:03.459923+00:00", "meta": {"OBJECT_NAME": "COSMOS 2251 DEB", "OBJECT_ID": "1993-036HP", "EPOCH": "2025-12-03T08:37:58.968192", "MEAN_MOTION": 13.2061547, "ECCENTRICITY": 0.05441161, "INCLINATION": 73.8837, "RA_OF_ASC_NODE": 1.6316, "ARG_OF_PERICENTER": 141.0801, "MEAN_ANOMALY": 246.3518, "EPHEMERIS_TYPE": 0, "CLASSIFICATION_TYPE": "U", "NORAD_CAT_ID": 34028, "ELEMENT_SET_NO": 999, "REV_AT_EPOCH": 80884, "BSTAR": 0.00027579231, "MEAN_MOTION_DOT": 2.26e-06, "MEAN_MOTION_DDOT": 0}, "tle": {"line1": "1 34028U 93036HP  25337.35971028  .00000226  00000+0  27579-3 0  9995", "line2": "2 34028  73.8837   1.6316 0544116 141.0801 246.3518 13.20615470808844"}}, "geometry": {"type": "Point", "coordinates": [1.8485155578739616, 2.3321128309110155]}}]}